[{"OBJECT_NAME":"SPIP","OBJECT_ID":"2023-174AU","EPOCH":"2026-03-09T22:52:46.383168","MEAN_MOTION":15.26695413,"ECCENTRICITY":0.00100427,"INCLINATION":97.3901,"RA_OF_ASC_NODE":146.4534,"ARG_OF_PERICENTER":168.1112,"MEAN_ANOMALY":192.0366,"EPHEMERIS_TYPE":0,"CLASSIFICATION_TYPE":"U","NORAD_CAT_ID":58298,"ELEMENT_SET_NO":999,"REV_AT_EPOCH":12963,"BSTAR":0.00025731582,"MEAN_MOTION_DOT":6.692e-5,"MEAN_MOTION_DDOT":0},{"OBJECT_NAME":"STARLINK-31581","OBJECT_ID":"2024-068V","EPOCH":"2026-03-09T22:38:35.616192","MEAN_MOTION":15.27565767,"ECCENTRICITY":0.0001373,"INCLINATION":43.0058,"RA_OF_ASC_NODE":25.9663,"ARG_OF_PERICENTER":272.1842,"MEAN_ANOMALY":87.8853,"EPHEMERIS_TYPE":0,"CLASSIFICATION_TYPE":"U","NORAD_CAT_ID":59474,"ELEMENT_SET_NO":999,"REV_AT_EPOCH":10864,"BSTAR":4.456418e-5,"MEAN_MOTION_DOT":9.64e-6,"MEAN_MOTION_DDOT":0}]
